start=new Date('2022-12-07T00:00:00.000Z').valueOf();
sats=[{"ECCENTRICITY":"0.00019520","CLASSIFICATION_TYPE":"U","ARG_OF_PERICENTER":"63.7386","MEAN_MOTION":"15.06404621","EPOCH":"2022-12-06T16:07:45.141600","OBJECT_NAME":"STARLINK-1815","APOAPSIS":"548.551","GP_ID":"219693750","OBJECT_ID":"2020-073AV","LAUNCH_DATE":"2020-10-18","PERIAPSIS":"545.848","EPHEMERIS_TYPE":"0","NORAD_CAT_ID":"46713","MEAN_ELEMENT_THEORY":"SGP4","MEAN_MOTION_DDOT":"0.0000000000000","REF_FRAME":"TEME","SEMIMAJOR_AXIS":"6925.334","MEAN_ANOMALY":"296.3804","MEAN_MOTION_DOT":"0.00000959","TLE_LINE1":"1 46713U 20073AV  22340.67205025  .00000959  00000-0  83281-4 0  9990","ELEMENT_SET_NO":"999","BSTAR":"0.00008328100000","PERIOD":"95.592","FILE":"3683274","REV_AT_EPOCH":"11791","SITE":"AFETR","RA_OF_ASC_NODE":"179.3276","OBJECT_TYPE":"PAYLOAD","DECAY_DATE":null,"RCS_SIZE":"LARGE","TIME_SYSTEM":"UTC","TLE_LINE2":"2 46713  53.0559 179.3276 0001952  63.7386 296.3804 15.06404621117915","COUNTRY_CODE":"US","INCLINATION":"53.0559","CENTER_NAME":"EARTH"},{"MEAN_ELEMENT_THEORY":"SGP4","REF_FRAME":"TEME","MEAN_MOTION_DDOT":"0.0000000000000","NORAD_CAT_ID":"46714","PERIAPSIS":"545.937","EPHEMERIS_TYPE":"0","LAUNCH_DATE":"2020-10-18","OBJECT_ID":"2020-073AW","GP_ID":"219673620","APOAPSIS":"548.582","OBJECT_NAME":"STARLINK-1816","EPOCH":"2022-12-06T22:15:21.675744","ECCENTRICITY":"0.00019100","CLASSIFICATION_TYPE":"U","ARG_OF_PERICENTER":"58.4752","MEAN_MOTION":"15.06385019","CENTER_NAME":"EARTH","INCLINATION":"53.0543","COUNTRY_CODE":"US","TIME_SYSTEM":"UTC","TLE_LINE2":"2 46714  53.0543 178.1753 0001910  58.4752 301.6424 15.06385019118433","DECAY_DATE":null,"RCS_SIZE":"LARGE","OBJECT_TYPE":"PAYLOAD","RA_OF_ASC_NODE":"178.1753","REV_AT_EPOCH":"11843","SITE":"AFETR","PERIOD":"95.593","FILE":"3683264","TLE_LINE1":"1 46714U 20073AW  22340.92733421 -.00000094  00000-0  12603-4 0  9996","ELEMENT_SET_NO":"999","BSTAR":"0.00001260300000","MEAN_MOTION_DOT":"-0.00000094","MEAN_ANOMALY":"301.6424","SEMIMAJOR_AXIS":"6925.394"},{"REF_FRAME":"TEME","MEAN_MOTION_DDOT":"0.0000000000000","MEAN_ELEMENT_THEORY":"SGP4","NORAD_CAT_ID":"46715","EPHEMERIS_TYPE":"0","PERIAPSIS":"545.884","LAUNCH_DATE":"2020-10-18","GP_ID":"219673626","OBJECT_ID":"2020-073AX","APOAPSIS":"548.646","OBJECT_NAME":"STARLINK-1817","EPOCH":"2022-12-06T22:10:03.196704","CLASSIFICATION_TYPE":"U","ARG_OF_PERICENTER":"55.0192","MEAN_MOTION":"15.06383147","ECCENTRICITY":"0.00019940","CENTER_NAME":"EARTH","INCLINATION":"53.0538","COUNTRY_CODE":"US","TLE_LINE2":"2 46715  53.0538 178.2051 0001994  55.0192 305.0984 15.06383147118432","TIME_SYSTEM":"UTC","RCS_SIZE":"LARGE","DECAY_DATE":null,"OBJECT_TYPE":"PAYLOAD","RA_OF_ASC_NODE":"178.2051","SITE":"AFETR","REV_AT_EPOCH":"11843","FILE":"3683264","PERIOD":"95.593","BSTAR":"-0.00003254700000","TLE_LINE1":"1 46715U 20073AX  22340.92364811 -.00000766  00000-0 -32547-4 0  9996","ELEMENT_SET_NO":"999","MEAN_MOTION_DOT":"-0.00000766","MEAN_ANOMALY":"305.0984","SEMIMAJOR_AXIS":"6925.400"},{"GP_ID":"219692501","OBJECT_ID":"2020-073AY","LAUNCH_DATE":"2020-10-18","PERIAPSIS":"546.162","EPHEMERIS_TYPE":"0","NORAD_CAT_ID":"46716","MEAN_ELEMENT_THEORY":"SGP4","MEAN_MOTION_DDOT":"0.0000000000000","REF_FRAME":"TEME","ECCENTRICITY":"0.00014570","CLASSIFICATION_TYPE":"U","ARG_OF_PERICENTER":"65.5869","MEAN_MOTION":"15.06413907","EPOCH":"2022-12-06T17:45:17.085312","OBJECT_NAME":"STARLINK-1818","APOAPSIS":"548.180","OBJECT_TYPE":"PAYLOAD","RCS_SIZE":"LARGE","DECAY_DATE":null,"TIME_SYSTEM":"UTC","TLE_LINE2":"2 46716  53.0556 194.0205 0001457  65.5869 294.5272 15.06413907117711","COUNTRY_CODE":"US","INCLINATION":"53.0556","CENTER_NAME":"EARTH","SEMIMAJOR_AXIS":"6925.306","MEAN_ANOMALY":"294.5272","MEAN_MOTION_DOT":"0.00003098","BSTAR":"0.00022671000000","TLE_LINE1":"1 46716U 20073AY  22340.73978108  .00003098  00000-0  22671-3 0  9991","ELEMENT_SET_NO":"999","PERIOD":"95.591","FILE":"3683274","REV_AT_EPOCH":"11771","SITE":"AFETR","RA_OF_ASC_NODE":"194.0205"},{"NORAD_CAT_ID":"46717","MEAN_ELEMENT_THEORY":"SGP4","MEAN_MOTION_DDOT":"0.0000000000000","REF_FRAME":"TEME","OBJECT_ID":"2020-073AZ","GP_ID":"219663268","LAUNCH_DATE":"2020-10-18","PERIAPSIS":"546.172","EPHEMERIS_TYPE":"0","APOAPSIS":"548.261","ECCENTRICITY":"0.00015080","CLASSIFICATION_TYPE":"U","ARG_OF_PERICENTER":"56.6101","MEAN_MOTION":"15.06398973","EPOCH":"2022-12-06T13:03:19.634400","OBJECT_NAME":"STARLINK-1820","COUNTRY_CODE":"US","INCLINATION":"53.0531","CENTER_NAME":"EARTH","OBJECT_TYPE":"PAYLOAD","DECAY_DATE":null,"RCS_SIZE":"LARGE","TIME_SYSTEM":"UTC","TLE_LINE2":"2 46717  53.0531 179.9092 0001508  56.6101 303.5033 15.06398973117898","TLE_LINE1":"1 46717U 20073AZ  22340.54397725 -.00000360  00000-0 -52816-5 0  9998","ELEMENT_SET_NO":"999","BSTAR":"-0.00000528160000","PERIOD":"95.592","FILE":"3683104","REV_AT_EPOCH":"11789","SITE":"AFETR","RA_OF_ASC_NODE":"179.9092","SEMIMAJOR_AXIS":"6925.352","MEAN_ANOMALY":"303.5033","MEAN_MOTION_DOT":"-0.00000360"},{"TLE_LINE1":"1 46718U 20073BA  22340.71673850 -.00001708  00000-0 -95759-4 0  9993","BSTAR":"-0.00009575900000","ELEMENT_SET_NO":"999","FILE":"3683274","PERIOD":"95.592","SITE":"AFETR","REV_AT_EPOCH":"11771","RA_OF_ASC_NODE":"194.1276","SEMIMAJOR_AXIS":"6925.362","MEAN_ANOMALY":"293.0970","MEAN_MOTION_DOT":"-0.00001708","COUNTRY_CODE":"US","INCLINATION":"53.0544","CENTER_NAME":"EARTH","OBJECT_TYPE":"PAYLOAD","RCS_SIZE":"LARGE","DECAY_DATE":null,"TLE_LINE2":"2 46718  53.0544 194.1276 0001875  67.0217 293.0970 15.06395766117718","TIME_SYSTEM":"UTC","APOAPSIS":"548.525","CLASSIFICATION_TYPE":"U","MEAN_MOTION":"15.06395766","ARG_OF_PERICENTER":"67.0217","ECCENTRICITY":"0.00018750","EPOCH":"2022-12-06T17:12:06.206400","OBJECT_NAME":"STARLINK-1821","NORAD_CAT_ID":"46718","REF_FRAME":"TEME","MEAN_MOTION_DDOT":"0.0000000000000","MEAN_ELEMENT_THEORY":"SGP4","OBJECT_ID":"2020-073BA","GP_ID":"219693500","LAUNCH_DATE":"2020-10-18","EPHEMERIS_TYPE":"0","PERIAPSIS":"545.928"},{"REF_FRAME":"TEME","MEAN_MOTION_DDOT":"0.0000000000000","MEAN_ELEMENT_THEORY":"SGP4","NORAD_CAT_ID":"46719","LAUNCH_DATE":"2020-10-18","EPHEMERIS_TYPE":"0","PERIAPSIS":"545.582","OBJECT_ID":"2020-073BB","GP_ID":"219693735","APOAPSIS":"548.872","OBJECT_NAME":"STARLINK-1822","CLASSIFICATION_TYPE":"U","ARG_OF_PERICENTER":"53.6115","MEAN_MOTION":"15.06395577","ECCENTRICITY":"0.00023750","EPOCH":"2022-12-06T18:24:30.010464","INCLINATION":"53.0548","CENTER_NAME":"EARTH","COUNTRY_CODE":"US","RCS_SIZE":"LARGE","DECAY_DATE":null,"TLE_LINE2":"2 46719  53.0548 158.9055 0002375  53.6115 306.5093 15.06395577118212","TIME_SYSTEM":"UTC","OBJECT_TYPE":"PAYLOAD","SITE":"AFETR","REV_AT_EPOCH":"11821","RA_OF_ASC_NODE":"158.9055","TLE_LINE1":"1 46719U 20073BB  22340.76701401  .00001016  00000-0  87118-4 0  9993","BSTAR":"0.00008711800000","ELEMENT_SET_NO":"999","FILE":"3683274","PERIOD":"95.592","MEAN_MOTION_DOT":"0.00001016","SEMIMAJOR_AXIS":"6925.362","MEAN_ANOMALY":"306.5093"},{"OBJECT_TYPE":"PAYLOAD","TIME_SYSTEM":"UTC","TLE_LINE2":"2 46722  53.0540 194.0158 0002050  56.2708 303.8476 15.06394081117718","DECAY_DATE":null,"RCS_SIZE":"LARGE","COUNTRY_CODE":"US","CENTER_NAME":"EARTH","INCLINATION":"53.0540","MEAN_ANOMALY":"303.8476","SEMIMAJOR_AXIS":"6925.367","MEAN_MOTION_DOT":"0.00001078","PERIOD":"95.593","FILE":"3683274","TLE_LINE1":"1 46722U 20073BE  22340.74348687  .00001078  00000-0  91313-4 0  9998","BSTAR":"0.00009131300000","ELEMENT_SET_NO":"999","RA_OF_ASC_NODE":"194.0158","REV_AT_EPOCH":"11771","SITE":"AFETR","OBJECT_ID":"2020-073BE","GP_ID":"219693000","PERIAPSIS":"545.812","EPHEMERIS_TYPE":"0","LAUNCH_DATE":"2020-10-18","NORAD_CAT_ID":"46722","MEAN_ELEMENT_THEORY":"SGP4","MEAN_MOTION_DDOT":"0.0000000000000","REF_FRAME":"TEME","EPOCH":"2022-12-06T17:50:37.265568","ECCENTRICITY":"0.00020500","ARG_OF_PERICENTER":"56.2708","CLASSIFICATION_TYPE":"U","MEAN_MOTION":"15.06394081","OBJECT_NAME":"STARLINK-1825","APOAPSIS":"548.651"},{"SEMIMAJOR_AXIS":"6925.355","MEAN_ANOMALY":"297.4562","MEAN_MOTION_DOT":"0.00002692","TLE_LINE1":"1 46723U 20073BF  22340.63660793  .00002692  00000-0  19956-3 0  9997","BSTAR":"0.00019956000000","ELEMENT_SET_NO":"999","FILE":"3683274","PERIOD":"95.592","SITE":"AFETR","REV_AT_EPOCH":"11826","RA_OF_ASC_NODE":"154.4985","OBJECT_TYPE":"PAYLOAD","RCS_SIZE":"LARGE","DECAY_DATE":null,"TLE_LINE2":"2 46723  53.0533 154.4985 0001953  62.6626 297.4562 15.06397931118262","TIME_SYSTEM":"UTC","COUNTRY_CODE":"US","INCLINATION":"53.0533","CENTER_NAME":"EARTH","CLASSIFICATION_TYPE":"U","ARG_OF_PERICENTER":"62.6626","MEAN_MOTION":"15.06397931","ECCENTRICITY":"0.00019530","EPOCH":"2022-12-06T15:16:42.925152","OBJECT_NAME":"STARLINK-1826","APOAPSIS":"548.572","OBJECT_ID":"2020-073BF","GP_ID":"219693751","LAUNCH_DATE":"2020-10-18","EPHEMERIS_TYPE":"0","PERIAPSIS":"545.867","NORAD_CAT_ID":"46723","MEAN_MOTION_DDOT":"0.0000000000000","REF_FRAME":"TEME","MEAN_ELEMENT_THEORY":"SGP4"},{"COUNTRY_CODE":"US","CENTER_NAME":"EARTH","INCLINATION":"53.0528","OBJECT_TYPE":"PAYLOAD","TIME_SYSTEM":"UTC","TLE_LINE2":"2 46725  53.0528 197.1605 0001701  68.0708 292.0462 15.06404296117614","DECAY_DATE":null,"RCS_SIZE":"LARGE","PERIOD":"95.592","FILE":"3683104","TLE_LINE1":"1 46725U 20073BH  22340.04315047  .00001842  00000-0  14249-3 0  9999","BSTAR":"0.00014249000000","ELEMENT_SET_NO":"999","RA_OF_ASC_NODE":"197.1605","REV_AT_EPOCH":"11761","SITE":"AFETR","MEAN_ANOMALY":"292.0462","SEMIMAJOR_AXIS":"6925.335","MEAN_MOTION_DOT":"0.00001842","NORAD_CAT_ID":"46725","MEAN_ELEMENT_THEORY":"SGP4","MEAN_MOTION_DDOT":"0.0000000000000","REF_FRAME":"TEME","OBJECT_ID":"2020-073BH","GP_ID":"219663535","PERIAPSIS":"546.022","EPHEMERIS_TYPE":"0","LAUNCH_DATE":"2020-10-18","APOAPSIS":"548.378","EPOCH":"2022-12-06T01:02:08.200608","ECCENTRICITY":"0.00017010","CLASSIFICATION_TYPE":"U","ARG_OF_PERICENTER":"68.0708","MEAN_MOTION":"15.06404296","OBJECT_NAME":"STARLINK-1828"}];
